ONEWEB-0166             
1 48065U 21025Z   25303.24295516  .00000243  00000+0  62989-3 0  9995
2 48065  87.9038   5.8929 0001780  93.6974 266.4359 13.13468656223462
ONEWEB-0151             
1 48066U 21025AA  25303.24464305  .00000316  00000+0  83081-3 0  9997
2 48066  87.9038   5.9182 0001993 101.7558 258.3795 13.13471608223409
ONEWEB-0170             
1 48067U 21025AB  25303.25311130  .00000325  00000+0  85510-3 0  9995
2 48067  87.9040   5.9236 0002016 113.0235 247.1107 13.13468480223360
ONEWEB-0168             
1 48068U 21025AC  25303.23787897  .00000255  00000+0  66306-3 0  9995
2 48068  87.9041   5.9086 0001980  94.6073 265.5282 13.13469483223371
ONEWEB-0173             
1 48069U 21025AD  25303.22940320  .00000026  00000+0  35871-4 0  9997
2 48069  87.9040   5.9180 0002245  94.3818 265.7568 13.13472114223616
ONEWEB-0171             
1 48070U 21025AE  25303.19047999  .00000071  00000+0  15823-3 0  9999
2 48070  87.9025   5.9558 0001945 101.5378 258.5970 13.13470531223425
ONEWEB-0172             
1 48071U 21025AF  25303.24634214  .00000357  00000+0  94300-3 0  9992
2 48071  87.9040   5.9193 0002013  99.4122 260.7235 13.13468467224321
ONEWEB-0174             
1 48072U 21025AG  25303.22772063  .00000105  00000+0  25183-3 0  9990
2 48072  87.9031   5.9312 0001819  94.5159 265.6178 13.13469836223649
ONEWEB-0175             
1 48073U 21025AH  25303.25819060  .00000198  00000+0  50654-3 0  9996
2 48073  87.9039   5.8921 0002103 106.6119 253.5241 13.13470827223303
ONEWEB-0177             
1 48074U 21025AJ  25303.19385138 -.00000094  00000+0 -29351-3 0  9991
2 48074  87.9041   5.9231 0001891  94.5241 265.6105 13.13471695223482
ONEWEB-0178             
1 48075U 21025AK  25303.21262206 -.00000224  00000+0 -64887-3 0  9993
2 48075  87.9035   5.9649 0002141  99.4059 260.7312 13.13469919223537
ONEWEB-0108             
1 48076U 21025AL  25303.24802723  .00000414  00000+0  10994-2 0  9999
2 48076  87.9037   5.9031 0001581  99.8221 260.3087 13.13471437223462
ONEWEB-0169             
1 48077U 21025AM  25303.20401614 -.00000284  00000+0 -81369-3 0  9992
2 48077  87.9032   5.9342 0001616  99.1993 260.9319 13.13469384222114
ONEWEB-0176             
1 48210U 21031A   25303.15104669  .00000277  00000+0  71265-3 0  9996
2 48210  87.9026 335.5301 0002167  99.4752 260.6623 13.14496211218098
ONEWEB-0184             
1 48211U 21031B   25303.12408513 -.00000227  00000+0 -64572-3 0  9999
2 48211  87.9023 335.5096 0002643 106.1652 253.9769 13.14501986218060
ONEWEB-0179             
1 48212U 21031C   25303.17086912  .00000244  00000+0  62338-3 0  9995
2 48212  87.9016 335.5121 0001860  92.0618 268.0725 13.14502563218114
