[{"OBJECT_NAME":"ONEWEB-0166","OBJECT_ID":"2021-025Z","EPOCH":"2025-10-30T05:49:51.325824","MEAN_MOTION":13.13468656,"ECCENTRICITY":0.00017805,"INCLINATION":87.9038,"RA_OF_ASC_NODE":5.8929,"ARG_OF_PERICENTER":93.6974,"MEAN_ANOMALY":266.4359,"EPHEMERIS_TYPE":0,"CLASSIFICATION_TYPE":"U","NORAD_CAT_ID":48065,"ELEMENT_SET_NO":999,"REV_AT_EPOCH":22346,"BSTAR":0.00062988716,"MEAN_MOTION_DOT":2.43e-6,"MEAN_MOTION_DDOT":0},{"OBJECT_NAME":"ONEWEB-0151","OBJECT_ID":"2021-025AA","EPOCH":"2025-10-30T05:52:17.159520","MEAN_MOTION":13.13471608,"ECCENTRICITY":0.00019934,"INCLINATION":87.9038,"RA_OF_ASC_NODE":5.9182,"ARG_OF_PERICENTER":101.7558,"MEAN_ANOMALY":258.3795,"EPHEMERIS_TYPE":0,"CLASSIFICATION_TYPE":"U","NORAD_CAT_ID":48066,"ELEMENT_SET_NO":999,"REV_AT_EPOCH":22340,"BSTAR":0.00083080876,"MEAN_MOTION_DOT":3.16e-6,"MEAN_MOTION_DDOT":0},{"OBJECT_NAME":"ONEWEB-0170","OBJECT_ID":"2021-025AB","EPOCH":"2025-10-30T06:04:28.816320","MEAN_MOTION":13.1346848,"ECCENTRICITY":0.00020164,"INCLINATION":87.904,"RA_OF_ASC_NODE":5.9236,"ARG_OF_PERICENTER":113.0235,"MEAN_ANOMALY":247.1107,"EPHEMERIS_TYPE":0,"CLASSIFICATION_TYPE":"U","NORAD_CAT_ID":48067,"ELEMENT_SET_NO":999,"REV_AT_EPOCH":22336,"BSTAR":0.00085510162,"MEAN_MOTION_DOT":3.25e-6,"MEAN_MOTION_DDOT":0},{"OBJECT_NAME":"ONEWEB-0168","OBJECT_ID":"2021-025AC","EPOCH":"2025-10-30T05:42:32.743008","MEAN_MOTION":13.13469483,"ECCENTRICITY":0.00019809,"INCLINATION":87.9041,"RA_OF_ASC_NODE":5.9086,"ARG_OF_PERICENTER":94.6073,"MEAN_ANOMALY":265.5282,"EPHEMERIS_TYPE":0,"CLASSIFICATION_TYPE":"U","NORAD_CAT_ID":48068,"ELEMENT_SET_NO":999,"REV_AT_EPOCH":22337,"BSTAR":0.00066306485,"MEAN_MOTION_DOT":2.55e-6,"MEAN_MOTION_DDOT":0},{"OBJECT_NAME":"ONEWEB-0173","OBJECT_ID":"2021-025AD","EPOCH":"2025-10-30T05:30:20.436480","MEAN_MOTION":13.13472114,"ECCENTRICITY":0.00022458,"INCLINATION":87.904,"RA_OF_ASC_NODE":5.918,"ARG_OF_PERICENTER":94.3818,"MEAN_ANOMALY":265.7568,"EPHEMERIS_TYPE":0,"CLASSIFICATION_TYPE":"U","NORAD_CAT_ID":48069,"ELEMENT_SET_NO":999,"REV_AT_EPOCH":22361,"BSTAR":3.5871235e-5,"MEAN_MOTION_DOT":2.6e-7,"MEAN_MOTION_DDOT":0},{"OBJECT_NAME":"ONEWEB-0171","OBJECT_ID":"2021-025AE","EPOCH":"2025-10-30T04:34:17.471136","MEAN_MOTION":13.13470531,"ECCENTRICITY":0.00019455,"INCLINATION":87.9025,"RA_OF_ASC_NODE":5.9558,"ARG_OF_PERICENTER":101.5378,"MEAN_ANOMALY":258.597,"EPHEMERIS_TYPE":0,"CLASSIFICATION_TYPE":"U","NORAD_CAT_ID":48070,"ELEMENT_SET_NO":999,"REV_AT_EPOCH":22342,"BSTAR":0.00015822927,"MEAN_MOTION_DOT":7.1e-7,"MEAN_MOTION_DDOT":0},{"OBJECT_NAME":"ONEWEB-0172","OBJECT_ID":"2021-025AF","EPOCH":"2025-10-30T05:54:43.960896","MEAN_MOTION":13.13468467,"ECCENTRICITY":0.00020138,"INCLINATION":87.904,"RA_OF_ASC_NODE":5.9193,"ARG_OF_PERICENTER":99.4122,"MEAN_ANOMALY":260.7235,"EPHEMERIS_TYPE":0,"CLASSIFICATION_TYPE":"U","NORAD_CAT_ID":48071,"ELEMENT_SET_NO":999,"REV_AT_EPOCH":22432,"BSTAR":0.00094300449,"MEAN_MOTION_DOT":3.57e-6,"MEAN_MOTION_DDOT":0},{"OBJECT_NAME":"ONEWEB-0174","OBJECT_ID":"2021-025AG","EPOCH":"2025-10-30T05:27:55.062432","MEAN_MOTION":13.13469836,"ECCENTRICITY":0.00018191,"INCLINATION":87.9031,"RA_OF_ASC_NODE":5.9312,"ARG_OF_PERICENTER":94.5159,"MEAN_ANOMALY":265.6178,"EPHEMERIS_TYPE":0,"CLASSIFICATION_TYPE":"U","NORAD_CAT_ID":48072,"ELEMENT_SET_NO":999,"REV_AT_EPOCH":22364,"BSTAR":0.00025183066,"MEAN_MOTION_DOT":1.05e-6,"MEAN_MOTION_DDOT":0},{"OBJECT_NAME":"ONEWEB-0175","OBJECT_ID":"2021-025AH","EPOCH":"2025-10-30T06:11:47.667840","MEAN_MOTION":13.13470827,"ECCENTRICITY":0.00021035,"INCLINATION":87.9039,"RA_OF_ASC_NODE":5.8921,"ARG_OF_PERICENTER":106.6119,"MEAN_ANOMALY":253.5241,"EPHEMERIS_TYPE":0,"CLASSIFICATION_TYPE":"U","NORAD_CAT_ID":48073,"ELEMENT_SET_NO":999,"REV_AT_EPOCH":22330,"BSTAR":0.00050653539,"MEAN_MOTION_DOT":1.98e-6,"MEAN_MOTION_DDOT":0},{"OBJECT_NAME":"ONEWEB-0177","OBJECT_ID":"2021-025AJ","EPOCH":"2025-10-30T04:39:08.759232","MEAN_MOTION":13.13471695,"ECCENTRICITY":0.00018916,"INCLINATION":87.9041,"RA_OF_ASC_NODE":5.9231,"ARG_OF_PERICENTER":94.5241,"MEAN_ANOMALY":265.6105,"EPHEMERIS_TYPE":0,"CLASSIFICATION_TYPE":"U","NORAD_CAT_ID":48074,"ELEMENT_SET_NO":999,"REV_AT_EPOCH":22348,"BSTAR":-0.00029351445,"MEAN_MOTION_DOT":-9.4e-7,"MEAN_MOTION_DDOT":0},{"OBJECT_NAME":"ONEWEB-0178","OBJECT_ID":"2021-025AK","EPOCH":"2025-10-30T05:06:10.545984","MEAN_MOTION":13.13469919,"ECCENTRICITY":0.00021412,"INCLINATION":87.9035,"RA_OF_ASC_NODE":5.9649,"ARG_OF_PERICENTER":99.4059,"MEAN_ANOMALY":260.7312,"EPHEMERIS_TYPE":0,"CLASSIFICATION_TYPE":"U","NORAD_CAT_ID":48075,"ELEMENT_SET_NO":999,"REV_AT_EPOCH":22353,"BSTAR":-0.00064886985,"MEAN_MOTION_DOT":-2.24e-6,"MEAN_MOTION_DDOT":0},{"OBJECT_NAME":"ONEWEB-0108","OBJECT_ID":"2021-025AL","EPOCH":"2025-10-30T05:57:09.552672","MEAN_MOTION":13.13471437,"ECCENTRICITY":0.00015819,"INCLINATION":87.9037,"RA_OF_ASC_NODE":5.9031,"ARG_OF_PERICENTER":99.8221,"MEAN_ANOMALY":260.3087,"EPHEMERIS_TYPE":0,"CLASSIFICATION_TYPE":"U","NORAD_CAT_ID":48076,"ELEMENT_SET_NO":999,"REV_AT_EPOCH":22346,"BSTAR":0.0010994335,"MEAN_MOTION_DOT":4.14e-6,"MEAN_MOTION_DDOT":0},{"OBJECT_NAME":"ONEWEB-0169","OBJECT_ID":"2021-025AM","EPOCH":"2025-10-30T04:53:46.994496","MEAN_MOTION":13.13469384,"ECCENTRICITY":0.00016165,"INCLINATION":87.9032,"RA_OF_ASC_NODE":5.9342,"ARG_OF_PERICENTER":99.1993,"MEAN_ANOMALY":260.9319,"EPHEMERIS_TYPE":0,"CLASSIFICATION_TYPE":"U","NORAD_CAT_ID":48077,"ELEMENT_SET_NO":999,"REV_AT_EPOCH":22211,"BSTAR":-0.00081369444,"MEAN_MOTION_DOT":-2.84e-6,"MEAN_MOTION_DDOT":0},{"OBJECT_NAME":"ONEWEB-0176","OBJECT_ID":"2021-031A","EPOCH":"2025-10-30T03:37:30.434016","MEAN_MOTION":13.14496211,"ECCENTRICITY":0.00021674,"INCLINATION":87.9026,"RA_OF_ASC_NODE":335.5301,"ARG_OF_PERICENTER":99.4752,"MEAN_ANOMALY":260.6623,"EPHEMERIS_TYPE":0,"CLASSIFICATION_TYPE":"U","NORAD_CAT_ID":48210,"ELEMENT_SET_NO":999,"REV_AT_EPOCH":21809,"BSTAR":0.00071265315,"MEAN_MOTION_DOT":2.77e-6,"MEAN_MOTION_DDOT":0},{"OBJECT_NAME":"ONEWEB-0184","OBJECT_ID":"2021-031B","EPOCH":"2025-10-30T02:58:40.955232","MEAN_MOTION":13.14501986,"ECCENTRICITY":0.00026435,"INCLINATION":87.9023,"RA_OF_ASC_NODE":335.5096,"ARG_OF_PERICENTER":106.1652,"MEAN_ANOMALY":253.9769,"EPHEMERIS_TYPE":0,"CLASSIFICATION_TYPE":"U","NORAD_CAT_ID":48211,"ELEMENT_SET_NO":999,"REV_AT_EPOCH":21806,"BSTAR":-0.00064572479,"MEAN_MOTION_DOT":-2.27e-6,"MEAN_MOTION_DDOT":0},{"OBJECT_NAME":"ONEWEB-0179","OBJECT_ID":"2021-031C","EPOCH":"2025-10-30T04:06:03.091968","MEAN_MOTION":13.14502563,"ECCENTRICITY":0.00018607,"INCLINATION":87.9016,"RA_OF_ASC_NODE":335.5121,"ARG_OF_PERICENTER":92.0618,"MEAN_ANOMALY":268.0725,"EPHEMERIS_TYPE":0,"CLASSIFICATION_TYPE":"U","NORAD_CAT_ID":48212,"ELEMENT_SET_NO":999,"REV_AT_EPOCH":21811,"BSTAR":0.00062338335,"MEAN_MOTION_DOT":2.44e-6,"MEAN_MOTION_DDOT":0}]
